H1 CPF 01  gfz 2022 07 11 12  6922 terrasarx 
H2 0702601  6201 31698    2022 07 11 12 59 42 2022 07 16 00 00 42   120 1 1  0 0 0
H9
10 0 59773   6462.000000  0     569657.573   2950027.590   6188465.425
10 0 59773   6582.000000  0    1010165.228   3632714.281   5754986.084
10 0 59773   6702.000000  0    1444361.245   4244315.010   5220303.884
10 0 59773   6822.000000  0    1863318.528   4774311.361   4593786.530
10 0 59773   6942.000000  0    2258200.623   5213759.840   3886425.722
10 0 59773   7062.000000  0    2620447.471   5555449.103   3110648.572
10 0 59773   7182.000000  0    2941960.462   5794028.720   2280101.914
10 0 59773   7302.000000  0    3215282.155   5926100.819   1409407.556
10 0 59773   7422.000000  0    3433764.644   5950270.008    513898.946
10 0 59773   7542.000000  0    3591723.285   5867154.578   -390655.976
10 0 59773   7662.000000  0    3684572.783   5679356.307  -1288341.032
10 0 59773   7782.000000  0    3708940.788   5391390.546  -2163379.710
10 0 59773   7902.000000  0    3662757.194   5009578.579  -3000419.820
10 0 59773   8022.000000  0    3545315.821   4541904.335  -3784808.052
10 0 59773   8142.000000  0    3357307.389   3997840.183  -4502847.384
10 0 59773   8262.000000  0    3100824.810   3388148.421  -5142033.493
10 0 59773   8382.000000  0    2779340.167   2724661.571  -5691267.034
10 0 59773   8502.000000  0    2397654.938   2020047.299  -6141037.130
10 0 59773   8622.000000  0    1961824.445   1287563.813  -6483575.192
10 0 59773   8742.000000  0    1479059.556    540810.680  -6712976.641
10 0 59773   8862.000000  0     957607.647   -206519.870  -6825293.051
10 0 59773   8982.000000  0     406611.983   -940889.576  -6818593.543
10 0 59773   9102.000000  0    -164045.859  -1649153.559  -6692992.475
10 0 59773   9222.000000  0    -743918.042  -2318788.525  -6450647.713
10 0 59773   9342.000000  0   -1322177.190  -2938110.029  -6095729.079
10 0 59773   9462.000000  0   -1887813.685  -3496474.356  -5634353.495
10 0 59773   9582.000000  0   -2429840.720  -3984461.451  -5074490.446
10 0 59773   9702.000000  0   -2937505.926  -4394038.353  -4425836.847
10 0 59773   9822.000000  0   -3400504.986  -4718698.018  -3699659.297
10 0 59773   9942.000000  0   -3809191.711  -4953570.049  -2908607.183
10 0 59773  10062.000000  0   -4154781.426  -5095501.598  -2066498.575
10 0 59773  10182.000000  0   -4429542.429  -5143105.351  -1188081.189
10 0 59773  10302.000000  0   -4626970.242  -5096772.971   -288772.552
10 0 59773  10422.000000  0   -4741939.795  -4958653.099    615615.654
10 0 59773  10542.000000  0   -4770831.560  -4732593.582   1509163.702
10 0 59773  10662.000000  0   -4711627.229  -4424048.110   2376133.824
10 0 59773  10782.000000  0   -4563972.519  -4039950.367   3201256.129
10 0 59773  10902.000000  0   -4329206.331  -3588559.457   3970004.639
10 0 59773  11022.000000  0   -4010355.191  -3079280.383   4668858.534
10 0 59773  11142.000000  0   -3612092.578  -2522463.583   5285541.453
10 0 59773  11262.000000  0   -3140666.610  -1929190.983   5809234.735
10 0 59773  11382.000000  0   -2603797.576  -1311053.007   6230764.180
10 0 59773  11502.000000  0   -2010546.430   -679918.998   6542756.884
10 0 59773  11622.000000  0   -1371156.404    -47706.432   6739763.957
10 0 59773  11742.000000  0    -696873.186    573843.201   6818347.910
10 0 59773  11862.000000  0        252.693   1173381.080   6777139.040
10 0 59773  11982.000000  0     707580.770   1740157.862   6616858.134
10 0 59773  12102.000000  0    1412109.410   2264216.589   6340304.441
10 0 59773  12222.000000  0    2100713.860   2736567.410   5952309.200
10 0 59773  12342.000000  0    2760390.342   3149343.079   5459657.266
10 0 59773  12462.000000  0    3378503.903   3495933.535   4870975.259
10 0 59773  12582.000000  0    3943033.543   3771095.247   4196584.539
10 0 59773  12702.000000  0    4442808.675   3971033.502   3448326.539
10 0 59773  12822.000000  0    4867738.689   4093458.557   2639357.410
10 0 59773  12942.000000  0    5209021.183   4137608.652   1783914.014
10 0 59773  13062.000000  0    5459329.189   4104242.811    897060.299
10 0 59773  13182.000000  0    5612970.439   3995602.109     -5585.179
10 0 59773  13302.000000  0    5666014.206   3815340.204   -908133.355
10 0 59773  13422.000000  0    5616382.478   3568424.901  -1794712.986
10 0 59773  13542.000000  0    5463903.726   3261013.393  -2649757.539
10 0 59773  13662.000000  0    5210327.971   2900305.133  -3458283.616
10 0 59773  13782.000000  0    4859304.728   2494376.853  -4206156.164
10 0 59773  13902.000000  0    4416322.742   2052002.448  -4880336.235
10 0 59773  14022.000000  0    3888613.885   1582462.500  -5469102.756
10 0 59773  14142.000000  0    3285026.291   1095350.357  -5962247.903
10 0 59773  14262.000000  0    2615868.409    600377.700  -6351244.275
10 0 59773  14382.000000  0    1892727.591    107183.536  -6629380.403
10 0 59773  14502.000000  0    1128268.930   -374849.297  -6791865.502
10 0 59773  14622.000000  0     336015.044   -836768.781  -6835904.757
10 0 59773  14742.000000  0    -469889.859  -1270215.630  -6760740.506
10 0 59773  14862.000000  0   -1274925.679  -1667569.987  -6567663.579
10 0 59773  14982.000000  0   -2064452.086  -2022082.585  -6259994.446
10 0 59773  15102.000000  0   -2823969.027  -2327987.892  -5843031.550
10 0 59773  15222.000000  0   -3539377.952  -2580597.570  -5323969.981
10 0 59773  15342.000000  0   -4197243.322  -2776374.322  -4711789.819
10 0 59773  15462.000000  0   -4785047.997  -2912983.171  -4017111.529
10 0 59773  15582.000000  0   -5291436.621  -2989318.845  -3252021.616
10 0 59773  15702.000000  0   -5706443.234  -3005508.808  -2429869.826
10 0 59773  15822.000000  0   -6021696.788  -2962890.990  -1565039.772
10 0 59773  15942.000000  0   -6230598.966  -2863966.594   -672697.453
10 0 59773  16062.000000  0   -6328469.787  -2712328.298    231478.403
10 0 59773  16182.000000  0   -6312656.716  -2512565.482   1131578.136
10 0 59773  16302.000000  0   -6182603.683  -2270148.748   2011750.623
10 0 59773  16422.000000  0   -5939875.698  -1991295.975   2856492.107
10 0 59773  16542.000000  0   -5588141.865  -1682824.139   3650926.547
10 0 59773  16662.000000  0   -5133115.705  -1351990.503   4381075.345
10 0 59773  16782.000000  0   -4582452.706  -1006326.725   5034105.873
10 0 59773  16902.000000  0   -3945613.129   -653471.854   5598555.438
10 0 59773  17022.000000  0   -3233691.697   -301006.918   6064530.617
10 0 59773  17142.000000  0   -2459215.802     43706.024   6423876.624
10 0 59773  17262.000000  0   -1635917.901    373674.958   6670313.566
10 0 59773  17382.000000  0    -778488.008    682416.791   6799539.756
10 0 59773  17502.000000  0      97689.603    964083.148   6809301.695
10 0 59773  17622.000000  0     976811.779   1213570.111   6699430.516
10 0 59773  17742.000000  0    1842940.473   1426610.863   6471844.863
10 0 59773  17862.000000  0    2680290.722   1599848.888   6130519.199
10 0 59773  17982.000000  0    3473518.621   1730890.907   5681419.505
10 0 59773  18102.000000  0    4208005.483   1818338.799   5132404.309
10 0 59773  18222.000000  0    4870130.507   1861800.367   4493093.400
10 0 59773  18342.000000  0    5447531.163   1861879.366   3774706.656
10 0 59773  18462.000000  0    5929344.695   1820142.900   2989868.357
10 0 59773  18582.000000  0    6306419.736   1739067.778   2152385.282
10 0 59773  18702.000000  0    6571500.399   1621966.845   1277002.282
10 0 59773  18822.000000  0    6719372.636   1472896.631    379136.021
10 0 59773  18942.000000  0    6746970.814   1296549.373   -525403.785
10 0 59773  19062.000000  0    6653441.217   1098131.448  -1420702.598
10 0 59773  19182.000000  0    6440159.863    883230.348  -2291028.755
10 0 59773  19302.000000  0    6110707.034    657674.882  -3121116.676
10 0 59773  19422.000000  0    5670797.302    427393.102  -3896439.148
10 0 59773  19542.000000  0    5128168.157    198270.564  -4603462.990
10 0 59773  19662.000000  0    4492430.072    -23987.716  -5229881.600
10 0 59773  19782.000000  0    3774884.920   -233987.511  -5764821.342
10 0 59773  19902.000000  0    2988316.642   -426765.570  -6199021.453
10 0 59773  20022.000000  0    2146756.602   -597897.799  -6524983.962
10 0 59773  20142.000000  0    1265231.145   -743592.888  -6737090.753
10 0 59773  20262.000000  0     359495.551   -860770.821  -6831691.500
10 0 59773  20382.000000  0    -554243.933   -947123.644  -6807159.356
10 0 59773  20502.000000  0   -1459612.940  -1001158.847  -6663915.399
10 0 59773  20622.000000  0   -2340355.975  -1022224.558  -6404422.684
10 0 59773  20742.000000  0   -3180621.792  -1010516.080  -6033147.112
10 0 59773  20862.000000  0   -3965242.705   -967064.163  -5556489.476
10 0 59773  20982.000000  0   -4680008.553   -893704.898  -4982686.914
10 0 59773  21102.000000  0   -5311927.186   -793031.260  -4321681.565
10 0 59773  21222.000000  0   -5849467.272   -668327.786  -3584959.556
10 0 59773  21342.000000  0   -6282779.612   -523488.547  -2785360.311
10 0 59773  21462.000000  0   -6603889.802   -362919.843  -1936857.959
10 0 59773  21582.000000  0   -6806858.336   -191430.803  -1054319.409
10 0 59773  21702.000000  0   -6887903.859    -14112.354   -153240.447
10 0 59773  21822.000000  0   -6845481.012    163791.448    750533.112
10 0 59773  21942.000000  0   -6680315.565    337016.074   1641090.738
10 0 59773  22062.000000  0   -6395394.567    500409.804   2502746.426
10 0 59773  22182.000000  0   -5995910.109    649064.580   3320324.259
10 0 59773  22302.000000  0   -5489157.967    778441.066   4079433.303
10 0 59773  22422.000000  0   -4884395.005    884484.367   4766725.046
10 0 59773  22542.000000  0   -4192659.652    963727.545   5370129.073
10 0 59773  22662.000000  0   -3426560.916   1013380.779   5879062.661
10 0 59773  22782.000000  0   -2600040.272   1031404.213   6284613.016
10 0 59773  22902.000000  0   -1728110.810   1016563.133   6579688.765
99
